[{"OBJECT_NAME":"STARLINK-31677","OBJECT_ID":"2024-090V","EPOCH":"2026-03-09T09:44:39.172416","MEAN_MOTION":15.27575537,"ECCENTRICITY":8.716e-5,"INCLINATION":43.0056,"RA_OF_ASC_NODE":185.3642,"ARG_OF_PERICENTER":253.7432,"MEAN_ANOMALY":106.3324,"EPHEMERIS_TYPE":0,"CLASSIFICATION_TYPE":"U","NORAD_CAT_ID":59749,"ELEMENT_SET_NO":999,"REV_AT_EPOCH":10338,"BSTAR":-9.911148e-6,"MEAN_MOTION_DOT":-5.35e-6,"MEAN_MOTION_DDOT":0},{"OBJECT_NAME":"CZ-2C DEB","OBJECT_ID":"2011-030E","EPOCH":"2026-03-09T22:02:28.057920","MEAN_MOTION":15.23147202,"ECCENTRICITY":0.00216086,"INCLINATION":98.1958,"RA_OF_ASC_NODE":48.5667,"ARG_OF_PERICENTER":313.6999,"MEAN_ANOMALY":74.4133,"EPHEMERIS_TYPE":0,"CLASSIFICATION_TYPE":"U","NORAD_CAT_ID":37734,"ELEMENT_SET_NO":999,"REV_AT_EPOCH":78227,"BSTAR":0.0029824689,"MEAN_MOTION_DOT":0.00071429,"MEAN_MOTION_DDOT":0}]
